OBJECT_NAME,OBJECT_ID,EPOCH,MEAN_MOTION,ECCENTRICITY,INCLINATION,RA_OF_ASC_NODE,ARG_OF_PERICENTER,MEAN_ANOMALY,EPHEMERIS_TYPE,CLASSIFICATION_TYPE,NORAD_CAT_ID,ELEMENT_SET_NO,REV_AT_EPOCH,BSTAR,MEAN_MOTION_DOT,MEAN_MOTION_DDOT
ONEWEB-0473,2022-012AH,2026-07-18T18:57:29.669472,13.10374574,.00018484,87.8813,29.9772,90.3209,269.8130,0,U,51653,999,21344,-.17928576E-2,-.613E-5,0
ONEWEB-0474,2022-012AJ,2026-07-18T05:55:34.948128,13.10372347,.00016182,87.8821,30.0729,96.0030,264.1282,0,U,51654,999,21336,-.20178361E-2,-.692E-5,0
ONEWEB-0475,2022-012AK,2026-07-18T21:18:19.491840,13.17648658,.00015451,87.9148,359.5665,114.4556,245.6737,0,U,51655,999,21786,.1624693E-3,.76E-6,0
ONEWEB-0490,2022-138A,2026-07-18T19:49:26.357664,13.19725840,.00020807,87.9192,298.6688,106.2164,253.9198,0,U,54113,999,18100,-.20010229E-3,-.67E-6,0
ONEWEB-0492,2022-138B,2026-07-18T18:36:38.667456,13.19723907,.00022494,87.9185,298.6781,102.7241,257.4143,0,U,54114,999,18100,.64525208E-4,.39E-6,0
ONEWEB-0495,2022-138C,2026-07-18T19:53:59.419680,13.19726297,.00023288,87.9186,298.6702,116.6887,243.4485,0,U,54115,999,18099,.14730757E-4,.19E-6,0
ONEWEB-0497,2022-138D,2026-07-18T20:12:10.260288,13.19723948,.00020465,87.9191,298.6616,102.8256,257.3106,0,U,54116,999,18098,.23043752E-3,.105E-5,0
ONEWEB-0499,2022-138E,2026-07-18T19:48:18.360864,13.19724665,.00020071,87.9186,298.6717,107.2357,252.8995,0,U,54117,999,18099,.24725815E-4,.23E-6,0
ONEWEB-0500,2022-138F,2026-07-18T19:51:43.496928,13.19726957,.0002056,87.9191,298.6679,98.8341,261.3025,0,U,54118,999,18100,.32895167E-4,.26E-6,0
ONEWEB-0501,2022-138G,2026-07-18T18:45:46.197216,13.19726037,.00021713,87.9194,298.6768,111.3450,248.7915,0,U,54119,999,18097,.51190885E-4,.33E-6,0
ONEWEB-0502,2022-138H,2026-07-18T18:25:15.984768,13.19723632,.00019635,87.9194,298.6687,107.8156,252.3192,0,U,54120,999,18099,.15799084E-3,.76E-6,0
ONEWEB-0503,2022-138J,2026-07-18T19:58:32.254464,13.19726706,.00017435,87.9195,298.6626,99.6502,260.4828,0,U,54121,999,18099,.44608073E-4,.31E-6,0
ONEWEB-0504,2022-138K,2026-07-18T19:40:20.521344,13.19726147,.00019036,87.9195,298.6691,106.1255,254.0088,0,U,54122,999,18100,.12860094E-3,.64E-6,0
ONEWEB-0505,2022-138L,2026-07-18T19:35:46.692096,13.19723252,.00020919,87.9192,298.6702,114.0236,246.1116,0,U,54123,999,18098,.57773225E-4,.36E-6,0
ONEWEB-0506,2022-138M,2026-07-18T18:59:25.347840,13.19725126,.00020776,87.9195,298.6732,110.1639,249.9717,0,U,54124,999,18097,-.58124588E-4,-.1E-6,0
ONEWEB-0507,2022-138N,2026-07-18T19:28:57.747936,13.19726681,.00021154,87.9186,298.6781,107.0994,253.0370,0,U,54125,999,18102,-.52419072E-4,-.8E-7,0
ONEWEB-0508,2022-138P,2026-07-18T19:24:25.555968,13.19726070,.00022774,87.9186,298.6786,109.7679,250.3699,0,U,54126,999,18100,-.44406821E-4,-.5E-7,0
ONEWEB-0509,2022-138Q,2026-07-18T18:48:01.737216,13.19724213,.00020774,87.9196,298.6763,105.4809,254.6553,0,U,54127,999,18097,.19695257E-4,.21E-6,0
ONEWEB-0510,2022-138R,2026-07-18T17:20:32.061984,13.20770546,.00019124,87.9177,268.1525,84.0777,276.0575,0,U,54128,999,18344,.49660665E-4,.33E-6,0
ONEWEB-0511,2022-138S,2026-07-18T18:43:28.316640,13.19723463,.00017889,87.9191,298.6783,105.0550,255.0781,0,U,54129,999,18100,.38588487E-4,.28E-6,0
ONEWEB-0512,2022-138T,2026-07-18T18:32:05.563104,13.19724964,.00019573,87.9184,298.6829,110.9002,249.2341,0,U,54130,999,18097,-.44041304E-3,-.163E-5,0
ONEWEB-0513,2022-138U,2026-07-18T20:10:36.575040,13.20269628,.00017343,87.9192,298.6095,127.9380,232.1910,0,U,54131,999,18089,.14773751E-3,.73E-6,0
ONEWEB-0514,2022-138V,2026-07-18T18:54:50.860224,13.19724834,.00019582,87.9194,298.6760,97.3733,262.7622,0,U,54132,999,18099,-.37421207E-3,-.137E-5,0
ONEWEB-0515,2022-138W,2026-07-18T22:28:25.508640,13.20771918,.0002709,87.9186,268.1055,84.3500,275.7942,0,U,54133,999,18349,-.39029158E-4,-.3E-7,0
ONEWEB-0516,2022-138X,2026-07-18T18:18:27.312768,13.19724203,.00021555,87.9185,298.6848,101.6164,258.5211,0,U,54134,999,18099,.16891646E-3,.81E-6,0
ONEWEB-0517,2022-138Y,2026-07-18T19:38:04.072416,13.19726034,.00017063,87.9192,298.6685,99.5344,260.5982,0,U,54135,999,18100,.17661086E-4,.2E-6,0
ONEWEB-0518,2022-138Z,2026-07-18T20:05:21.901920,13.19724130,.00022276,87.9187,298.6723,100.0663,260.0721,0,U,54136,999,18100,.20724964E-3,.96E-6,0
ONEWEB-0519,2022-138AA,2026-07-18T18:52:34.011264,13.19723680,.00018175,87.9192,298.6759,99.0113,261.1225,0,U,54137,999,18100,.4492547E-5,.15E-6,0
ONEWEB-0520,2022-138AB,2026-07-18T19:42:37.048896,13.19725604,.00021093,87.9193,298.6694,107.8979,252.2384,0,U,54138,999,18099,-.41306683E-3,-.152E-5,0
ONEWEB-0521,2022-138AC,2026-07-18T18:41:10.990752,13.19725263,.00017972,87.9196,298.6669,97.4214,262.7123,0,U,54139,999,18093,-.44782528E-3,-.166E-5,0
